{"type": "FeatureCollection", "features": [ {"type": "Feature", "properties": {"norad_id": 30629, "name": "FENGYUN 1C DEB", "group": "fengyun-1c-debris", "lat": -8.591928894106125, "lon": -96.55507423702112, "alt_km": 692.9445869945184, "timestamp": "2025-12-14T16:47:40.961396+00:00", "meta": {"OBJECT_NAME": "FENGYUN 1C DEB", "OBJECT_ID": "1999-025ANL", "EPOCH": "2025-12-13T17:38:30.094656", "MEAN_MOTION": 14.59616131, "ECCENTRICITY": 0.00076399, "INCLINATION": 99.2508, "RA_OF_ASC_NODE": 83.7814, "ARG_OF_PERICENTER": 197.374, "MEAN_ANOMALY": 324.9079, "EPHEMERIS_TYPE": 0, "CLASSIFICATION_TYPE": "U", "NORAD_CAT_ID": 30629, "ELEMENT_SET_NO": 999, "REV_AT_EPOCH": 97904, "BSTAR": 0.0031140891, "MEAN_MOTION_DOT": 0.00014799, "MEAN_MOTION_DDOT": 0}, "tle": {"line1": "1 30629U 99025ANL 25347.73507054  .00014799  00000+0  31141-2 0  9998", "line2": "2 30629  99.2508  83.7814 0007639 197.3740 324.9079 14.59616131979042"}}, "geometry": {"type": "Point", "coordinates": [-96.55507423702112, -8.591928894106125]}}, {"type": "Feature", "properties": {"norad_id": 30630, "name": "FENGYUN 1C DEB", "group": "fengyun-1c-debris", "lat": -63.4947481714291, "lon": -37.08918881041609, "alt_km": 843.0686642326355, "timestamp": "2025-12-14T16:47:40.961407+00:00", "meta": {"OBJECT_NAME": "FENGYUN 1C DEB", "OBJECT_ID": "1999-025ANM", "EPOCH": "2025-12-13T11:04:20.335872", "MEAN_MOTION": 14.22382531, "ECCENTRICITY": 0.00259622, "INCLINATION": 99.1726, "RA_OF_ASC_NODE": 160.5278, "ARG_OF_PERICENTER": 72.6719, "MEAN_ANOMALY": 314.3004, "EPHEMERIS_TYPE": 0, "CLASSIFICATION_TYPE": "U", "NORAD_CAT_ID": 30630, "ELEMENT_SET_NO": 999, "REV_AT_EPOCH": 97223, "BSTAR": 0.0013475082, "MEAN_MOTION_DOT": 2.963e-05, "MEAN_MOTION_DDOT": 0}, "tle": {"line1": "1 30630U 99025ANM 25347.46134648  .00002963  00000+0  13475-2 0  9995", "line2": "2 30630  99.1726 160.5278 0025962  72.6719 314.3004 14.22382531972232"}}, "geometry": {"type": "Point", "coordinates": [-37.08918881041609, -63.4947481714291]}}, {"type": "Feature", "properties": {"norad_id": 30632, "name": "FENGYUN 1C DEB", "group": "fengyun-1c-debris", "lat": 0.3542746621413859, "lon": 120.12849187174407, "alt_km": 696.9744470384103, "timestamp": "2025-12-14T16:47:40.961417+00:00", "meta": {"OBJECT_NAME": "FENGYUN 1C DEB", "OBJECT_ID": "1999-025ANP", "EPOCH": "2025-12-13T21:39:21.947904", "MEAN_MOTION": 14.62812653, "ECCENTRICITY": 0.00148583, "INCLINATION": 98.8226, "RA_OF_ASC_NODE": 119.3317, "ARG_OF_PERICENTER": 166.0171, "MEAN_ANOMALY": 317.4913, "EPHEMERIS_TYPE": 0, "CLASSIFICATION_TYPE": "U", "NORAD_CAT_ID": 30632, "ELEMENT_SET_NO": 999, "REV_AT_EPOCH": 97708, "BSTAR": 0.0035806114, "MEAN_MOTION_DOT": 0.00018299, "MEAN_MOTION_DDOT": 0}, "tle": {"line1": "1 30632U 99025ANP 25347.90233736  .00018299  00000+0  35806-2 0  9995", "line2": "2 30632  98.8226 119.3317 0014858 166.0171 317.4913 14.62812653977081"}}, "geometry": {"type": "Point", "coordinates": [120.12849187174407, 0.3542746621413859]}}, {"type": "Feature", "properties": {"norad_id": 30633, "name": "FENGYUN 1C DEB", "group": "fengyun-1c-debris", "lat": -16.030642877024555, "lon": 31.122481105408735, "alt_km": 833.1767485604969, "timestamp": "2025-12-14T16:47:40.961427+00:00", "meta": {"OBJECT_NAME": "FENGYUN 1C DEB", "OBJECT_ID": "1999-025ANQ", "EPOCH": "2025-12-13T21:21:36.182304", "MEAN_MOTION": 14.04392507, "ECCENTRICITY": 0.01301761, "INCLINATION": 98.4205, "RA_OF_ASC_NODE": 212.8105, "ARG_OF_PERICENTER": 256.9426, "MEAN_ANOMALY": 168.6232, "EPHEMERIS_TYPE": 0, "CLASSIFICATION_TYPE": "U", "NORAD_CAT_ID": 30633, "ELEMENT_SET_NO": 999, "REV_AT_EPOCH": 95908, "BSTAR": 0.0009851583, "MEAN_MOTION_DOT": 1.651e-05, "MEAN_MOTION_DDOT": 0}, "tle": {"line1": "1 30633U 99025ANQ 25347.89000211  .00001651  00000+0  98516-3 0  9996", "line2": "2 30633  98.4205 212.8105 0130176 256.9426 168.6232 14.04392507959080"}}, "geometry": {"type": "Point", "coordinates": [31.122481105408735, -16.030642877024555]}}, {"type": "Feature", "properties": {"norad_id": 30634, "name": "FENGYUN 1C DEB", "group": "fengyun-1c-debris", "lat": -60.04009441817367, "lon": 135.08071190827522, "alt_km": 943.0672600212738, "timestamp": "2025-12-14T16:47:40.961437+00:00", "meta": {"OBJECT_NAME": "FENGYUN 1C DEB", "OBJECT_ID": "1999-025ANR", "EPOCH": "2025-12-13T22:55:15.411936", "MEAN_MOTION": 14.09721848, "ECCENTRICITY": 0.01208984, "INCLINATION": 99.2927, "RA_OF_ASC_NODE": 330.8139, "ARG_OF_PERICENTER": 93.2105, "MEAN_ANOMALY": 329.9344, "EPHEMERIS_TYPE": 0, "CLASSIFICATION_TYPE": "U", "NORAD_CAT_ID": 30634, "ELEMENT_SET_NO": 999, "REV_AT_EPOCH": 95634, "BSTAR": 0.0023478498, "MEAN_MOTION_DOT": 4.366e-05, "MEAN_MOTION_DDOT": 0}, "tle": {"line1": "1 30634U 99025ANR 25347.95503949  .00004366  00000+0  23478-2 0  9990", "line2": "2 30634  99.2927 330.8139 0120898  93.2105 329.9344 14.09721848956346"}}, "geometry": {"type": "Point", "coordinates": [135.08071190827522, -60.04009441817367]}}, {"type": "Feature", "properties": {"norad_id": 30639, "name": "FENGYUN 1C DEB", "group": "fengyun-1c-debris", "lat": 65.51627745119342, "lon": 80.35507268394765, "alt_km": 819.8292346073695, "timestamp": "2025-12-14T16:47:40.961447+00:00", "meta": {"OBJECT_NAME": "FENGYUN 1C DEB", "OBJECT_ID": "1999-025ANW", "EPOCH": "2025-12-13T18:41:09.768192", "MEAN_MOTION": 14.3235493, "ECCENTRICITY": 0.00674533, "INCLINATION": 99.0171, "RA_OF_ASC_NODE": 99.8055, "ARG_OF_PERICENTER": 278.2175, "MEAN_ANOMALY": 81.1362, "EPHEMERIS_TYPE": 0, "CLASSIFICATION_TYPE": "U", "NORAD_CAT_ID": 30639, "ELEMENT_SET_NO": 999, "REV_AT_EPOCH": 96734, "BSTAR": 0.0032484202, "MEAN_MOTION_DOT": 8.965e-05, "MEAN_MOTION_DDOT": 0}, "tle": {"line1": "1 30639U 99025ANW 25347.77858528  .00008965  00000+0  32484-2 0  9997", "line2": "2 30639  99.0171  99.8055 0067453 278.2175  81.1362 14.32354930967347"}}, "geometry": {"type": "Point", "coordinates": [80.35507268394765, 65.51627745119342]}}, {"type": "Feature", "properties": {"norad_id": 30640, "name": "FENGYUN 1C DEB", "group": "fengyun-1c-debris", "lat": 74.54165044418842, "lon": 24.709125251710095, "alt_km": 780.6291312611856, "timestamp": "2025-12-14T16:47:40.961458+00:00", "meta": {"OBJECT_NAME": "FENGYUN 1C DEB", "OBJECT_ID": "1999-025ANX", "EPOCH": "2025-12-12T03:27:57.055104", "MEAN_MOTION": 14.14626342, "ECCENTRICITY": 0.00809036, "INCLINATION": 99.057, "RA_OF_ASC_NODE": 57.3425, "ARG_OF_PERICENTER": 102.2672, "MEAN_ANOMALY": 288.9595, "EPHEMERIS_TYPE": 0, "CLASSIFICATION_TYPE": "U", "NORAD_CAT_ID": 30640, "ELEMENT_SET_NO": 999, "REV_AT_EPOCH": 96437, "BSTAR": 0.00227777, "MEAN_MOTION_DOT": 4.475e-05, "MEAN_MOTION_DDOT": 0}, "tle": {"line1": "1 30640U 99025ANX 25346.14441036  .00004475  00000+0  22778-2 0  9998", "line2": "2 30640  99.0570  57.3425 0080903 102.2672 288.9595 14.14626342964379"}}, "geometry": {"type": "Point", "coordinates": [24.709125251710095, 74.54165044418842]}}, {"type": "Feature", "properties": {"norad_id": 30641, "name": "FENGYUN 1C DEB", "group": "fengyun-1c-debris", "lat": 59.52222231072333, "lon": 118.8089097589963, "alt_km": 531.2267683066639, "timestamp": "2025-12-14T16:47:40.961468+00:00", "meta": {"OBJECT_NAME": "FENGYUN 1C DEB", "OBJECT_ID": "1999-025ANY", "EPOCH": "2025-12-13T19:24:11.890944", "MEAN_MOTION": 14.78976069, "ECCENTRICITY": 0.01362547, "INCLINATION": 98.941, "RA_OF_ASC_NODE": 282.3027, "ARG_OF_PERICENTER": 123.2534, "MEAN_ANOMALY": 293.1652, "EPHEMERIS_TYPE": 0, "CLASSIFICATION_TYPE": "U", "NORAD_CAT_ID": 30641, "ELEMENT_SET_NO": 999, "REV_AT_EPOCH": 548, "BSTAR": 0.00060007742, "MEAN_MOTION_DOT": 5.113e-05, "MEAN_MOTION_DDOT": 0}, "tle": {"line1": "1 30641U 99025ANY 25347.80847096  .00005113  00000+0  60008-3 0  9998", "line2": "2 30641  98.9410 282.3027 0136254 123.2534 293.1652 14.78976069  5484"}}, "geometry": {"type": "Point", "coordinates": [118.8089097589963, 59.52222231072333]}}, {"type": "Feature", "properties": {"norad_id": 30646, "name": "FENGYUN 1C DEB", "group": "fengyun-1c-debris", "lat": 81.32329397826922, "lon": -76.96229427348521, "alt_km": 837.0152069634951, "timestamp": "2025-12-14T16:47:40.961478+00:00", "meta": {"OBJECT_NAME": "FENGYUN 1C DEB", "OBJECT_ID": "1999-025APD", "EPOCH": "2025-12-13T13:07:11.443872", "MEAN_MOTION": 14.09654308, "ECCENTRICITY": 0.00482102, "INCLINATION": 98.6518, "RA_OF_ASC_NODE": 8.055, "ARG_OF_PERICENTER": 29.8457, "MEAN_ANOMALY": 330.5448, "EPHEMERIS_TYPE": 0, "CLASSIFICATION_TYPE": "U", "NORAD_CAT_ID": 30646, "ELEMENT_SET_NO": 999, "REV_AT_EPOCH": 96616, "BSTAR": 0.00091308523, "MEAN_MOTION_DOT": 1.576e-05, "MEAN_MOTION_DDOT": 0}, "tle": {"line1": "1 30646U 99025APD 25347.54666023  .00001576  00000+0  91309-3 0  9990", "line2": "2 30646  98.6518   8.0550 0048210  29.8457 330.5448 14.09654308966161"}}, "geometry": {"type": "Point", "coordinates": [-76.96229427348521, 81.32329397826922]}}, {"type": "Feature", "properties": {"norad_id": 30647, "name": "FENGYUN 1C DEB", "group": "fengyun-1c-debris", "lat": 21.32385299126, "lon": 104.4375837686508, "alt_km": 683.7704816456935, "timestamp": "2025-12-14T16:47:40.961488+00:00", "meta": {"OBJECT_NAME": "FENGYUN 1C DEB", "OBJECT_ID": "1999-025APE", "EPOCH": "2025-12-13T18:56:02.823648", "MEAN_MOTION": 14.5650799, "ECCENTRICITY": 0.00292972, "INCLINATION": 98.9886, "RA_OF_ASC_NODE": 279.9139, "ARG_OF_PERICENTER": 170.696, "MEAN_ANOMALY": 254.3576, "EPHEMERIS_TYPE": 0, "CLASSIFICATION_TYPE": "U", "NORAD_CAT_ID": 30647, "ELEMENT_SET_NO": 999, "REV_AT_EPOCH": 98004, "BSTAR": 0.0025487003, "MEAN_MOTION_DOT": 0.00011367, "MEAN_MOTION_DDOT": 0}, "tle": {"line1": "1 30647U 99025APE 25347.78892157  .00011367  00000+0  25487-2 0  9998", "line2": "2 30647  98.9886 279.9139 0029297 170.6960 254.3576 14.56507990980047"}}, "geometry": {"type": "Point", "coordinates": [104.4375837686508, 21.32385299126]}}]}